OBJECT B                
1 51825U 22019B   24147.91014203  .00010498  00000+0  46856-3 0  9996
2 51825  97.4291 219.5177 0013087 316.7032  43.3174 15.21482244123997
